{"type": "FeatureCollection", "features": [ {"type": "Feature", "properties": {"norad_id": 59598, "name": "GSAT0225 (GALILEO 29)", "group": "gnss", "lat": -49.858546458924685, "lon": 50.07189163184458, "alt_km": 23229.690412455886, "timestamp": "2025-12-17T10:52:54.596966+00:00", "meta": {"OBJECT_NAME": "GSAT0225 (GALILEO 29)", "OBJECT_ID": "2024-079A", "EPOCH": "2025-12-16T09:22:38.225280", "MEAN_MOTION": 1.70475011, "ECCENTRICITY": 0.00021396, "INCLINATION": 55.0038, "RA_OF_ASC_NODE": 106.1932, "ARG_OF_PERICENTER": 182.0305, "MEAN_ANOMALY": 176.7742, "EPHEMERIS_TYPE": 0, "CLASSIFICATION_TYPE": "U", "NORAD_CAT_ID": 59598, "ELEMENT_SET_NO": 999, "REV_AT_EPOCH": 1019, "BSTAR": 0, "MEAN_MOTION_DOT": -1e-07, "MEAN_MOTION_DDOT": 0}, "tle": {"line1": "1 59598U 24079A   25350.39072020 -.00000010  00000+0  00000+0 0  9996", "line2": "2 59598  55.0038 106.1932 0002139 182.0305 176.7742  1.70475011 10196"}}, "geometry": {"type": "Point", "coordinates": [50.07189163184458, -49.858546458924685]}}, {"type": "Feature", "properties": {"norad_id": 59600, "name": "GSAT0227 (GALILEO 30)", "group": "gnss", "lat": 1.1590487645695713, "lon": -74.6614430186592, "alt_km": 23218.025747242144, "timestamp": "2025-12-17T10:52:54.596980+00:00", "meta": {"OBJECT_NAME": "GSAT0227 (GALILEO 30)", "OBJECT_ID": "2024-079C", "EPOCH": "2025-12-15T23:44:48.318432", "MEAN_MOTION": 1.70474874, "ECCENTRICITY": 0.00030998, "INCLINATION": 54.9987, "RA_OF_ASC_NODE": 106.2033, "ARG_OF_PERICENTER": 115.4904, "MEAN_ANOMALY": 244.5024, "EPHEMERIS_TYPE": 0, "CLASSIFICATION_TYPE": "U", "NORAD_CAT_ID": 59600, "ELEMENT_SET_NO": 999, "REV_AT_EPOCH": 1024, "BSTAR": 0, "MEAN_MOTION_DOT": -9e-08, "MEAN_MOTION_DDOT": 0}, "tle": {"line1": "1 59600U 24079C   25349.98944813 -.00000009  00000+0  00000+0 0  9999", "line2": "2 59600  54.9987 106.2033 0003099 115.4904 244.5024  1.70474874 10244"}}, "geometry": {"type": "Point", "coordinates": [-74.6614430186592, 1.1590487645695713]}}, {"type": "Feature", "properties": {"norad_id": 61182, "name": "GSAT0232 (GALILEO 32)", "group": "gnss", "lat": 10.55705372558236, "lon": -126.2583445155458, "alt_km": 23226.423261419448, "timestamp": "2025-12-17T10:52:54.596991+00:00", "meta": {"OBJECT_NAME": "GSAT0232 (GALILEO 32)", "OBJECT_ID": "2024-167A", "EPOCH": "2025-12-15T09:09:10.050912", "MEAN_MOTION": 1.70473627, "ECCENTRICITY": 0.00018812, "INCLINATION": 55.2399, "RA_OF_ASC_NODE": 226.3583, "ARG_OF_PERICENTER": 210.2547, "MEAN_ANOMALY": 331.0661, "EPHEMERIS_TYPE": 0, "CLASSIFICATION_TYPE": "U", "NORAD_CAT_ID": 61182, "ELEMENT_SET_NO": 999, "REV_AT_EPOCH": 774, "BSTAR": 0, "MEAN_MOTION_DOT": 4.1e-07, "MEAN_MOTION_DDOT": 0}, "tle": {"line1": "1 61182U 24167A   25349.38136633  .00000041  00000+0  00000+0 0  9997", "line2": "2 61182  55.2399 226.3583 0001881 210.2547 331.0661  1.70473627  7746"}}, "geometry": {"type": "Point", "coordinates": [-126.2583445155458, 10.55705372558236]}}, {"type": "Feature", "properties": {"norad_id": 61183, "name": "GSAT0226 (GALILEO 31)", "group": "gnss", "lat": 41.93140398484497, "lon": 7.7612856414377065, "alt_km": 23214.740470656612, "timestamp": "2025-12-17T10:52:54.597003+00:00", "meta": {"OBJECT_NAME": "GSAT0226 (GALILEO 31)", "OBJECT_ID": "2024-167B", "EPOCH": "2025-12-12T20:26:08.685024", "MEAN_MOTION": 1.70473602, "ECCENTRICITY": 8.42e-05, "INCLINATION": 55.2391, "RA_OF_ASC_NODE": 226.433, "ARG_OF_PERICENTER": 113.0334, "MEAN_ANOMALY": 68.3038, "EPHEMERIS_TYPE": 0, "CLASSIFICATION_TYPE": "U", "NORAD_CAT_ID": 61183, "ELEMENT_SET_NO": 999, "REV_AT_EPOCH": 767, "BSTAR": 0, "MEAN_MOTION_DOT": 1.9e-07, "MEAN_MOTION_DDOT": 0}, "tle": {"line1": "1 61183U 24167B   25346.85148941  .00000019  00000+0  00000+0 0  9997", "line2": "2 61183  55.2391 226.4330 0000842 113.0334  68.3038  1.70473602  7673"}}, "geometry": {"type": "Point", "coordinates": [7.7612856414377065, 41.93140398484497]}}, {"type": "Feature", "properties": {"norad_id": 61186, "name": "BEIDOU-3 M25 (C47)", "group": "gnss", "lat": 12.31844320587056, "lon": -42.5522793370907, "alt_km": 21523.212494954456, "timestamp": "2025-12-17T10:52:54.597016+00:00", "meta": {"OBJECT_NAME": "BEIDOU-3 M25 (C47)", "OBJECT_ID": "2024-168B", "EPOCH": "2025-12-16T08:41:42.146304", "MEAN_MOTION": 1.86230282, "ECCENTRICITY": 0.00054361, "INCLINATION": 54.6387, "RA_OF_ASC_NODE": 308.5944, "ARG_OF_PERICENTER": 298.6165, "MEAN_ANOMALY": 64.9369, "EPHEMERIS_TYPE": 0, "CLASSIFICATION_TYPE": "U", "NORAD_CAT_ID": 61186, "ELEMENT_SET_NO": 999, "REV_AT_EPOCH": 838, "BSTAR": 0, "MEAN_MOTION_DOT": -9.6e-07, "MEAN_MOTION_DDOT": 0}, "tle": {"line1": "1 61186U 24168B   25350.36229336 -.00000096  00000+0  00000+0 0  9996", "line2": "2 61186  54.6387 308.5944 0005436 298.6165  64.9369  1.86230282  8383"}}, "geometry": {"type": "Point", "coordinates": [-42.5522793370907, 12.31844320587056]}}, {"type": "Feature", "properties": {"norad_id": 61187, "name": "BEIDOU-3 M27 (C49)", "group": "gnss", "lat": 23.986494850660186, "lon": 110.1086847693683, "alt_km": 21532.063834077235, "timestamp": "2025-12-17T10:52:54.597029+00:00", "meta": {"OBJECT_NAME": "BEIDOU-3 M27 (C49)", "OBJECT_ID": "2024-168C", "EPOCH": "2025-12-16T16:40:41.983104", "MEAN_MOTION": 1.86230434, "ECCENTRICITY": 0.00024841, "INCLINATION": 54.6339, "RA_OF_ASC_NODE": 308.5665, "ARG_OF_PERICENTER": 338.791, "MEAN_ANOMALY": 22.7228, "EPHEMERIS_TYPE": 0, "CLASSIFICATION_TYPE": "U", "NORAD_CAT_ID": 61187, "ELEMENT_SET_NO": 999, "REV_AT_EPOCH": 586, "BSTAR": 0, "MEAN_MOTION_DOT": -9.5e-07, "MEAN_MOTION_DDOT": 0}, "tle": {"line1": "1 61187U 24168C   25350.69493036 -.00000095  00000+0  00000+0 0  9992", "line2": "2 61187  54.6339 308.5665 0002484 338.7910  22.7228  1.86230434  5860"}}, "geometry": {"type": "Point", "coordinates": [110.1086847693683, 23.986494850660186]}}, {"type": "Feature", "properties": {"norad_id": 62339, "name": "GPS BIII-7  (PRN 01)", "group": "gnss", "lat": 47.51016141580296, "lon": 31.636846584533643, "alt_km": 20169.788775239103, "timestamp": "2025-12-17T10:52:54.597041+00:00", "meta": {"OBJECT_NAME": "GPS BIII-7  (PRN 01)", "OBJECT_ID": "2024-242A", "EPOCH": "2025-12-16T08:50:11.332608", "MEAN_MOTION": 2.00568131, "ECCENTRICITY": 0.00124404, "INCLINATION": 54.9226, "RA_OF_ASC_NODE": 341.593, "ARG_OF_PERICENTER": 345.4157, "MEAN_ANOMALY": 15.1615, "EPHEMERIS_TYPE": 0, "CLASSIFICATION_TYPE": "U", "NORAD_CAT_ID": 62339, "ELEMENT_SET_NO": 999, "REV_AT_EPOCH": 759, "BSTAR": 0, "MEAN_MOTION_DOT": -9e-07, "MEAN_MOTION_DDOT": 0}, "tle": {"line1": "1 62339U 24242A   25350.36818672 -.00000090  00000+0  00000+0 0  9991", "line2": "2 62339  54.9226 341.5930 0012440 345.4157  15.1615  2.00568131  7594"}}, "geometry": {"type": "Point", "coordinates": [31.636846584533643, 47.51016141580296]}}, {"type": "Feature", "properties": {"norad_id": 62850, "name": "NVS-02 (IRNSS-1K)", "group": "gnss", "lat": -14.288130002548572, "lon": -172.41893748374602, "alt_km": 33822.269414257695, "timestamp": "2025-12-17T10:52:54.597053+00:00", "meta": {"OBJECT_NAME": "NVS-02 (IRNSS-1K)", "OBJECT_ID": "2025-020A", "EPOCH": "2025-12-16T16:24:46.364544", "MEAN_MOTION": 2.17598367, "ECCENTRICITY": 0.734747, "INCLINATION": 20.9733, "RA_OF_ASC_NODE": 326.2318, "ARG_OF_PERICENTER": 28.7923, "MEAN_ANOMALY": 356.9482, "EPHEMERIS_TYPE": 0, "CLASSIFICATION_TYPE": "U", "NORAD_CAT_ID": 62850, "ELEMENT_SET_NO": 999, "REV_AT_EPOCH": 700, "BSTAR": 0.00026956761, "MEAN_MOTION_DOT": 5.1e-06, "MEAN_MOTION_DDOT": 0}, "tle": {"line1": "1 62850U 25020A   25350.68386996  .00000510  00000+0  26957-3 0  9997", "line2": "2 62850  20.9733 326.2318 7347470  28.7923 356.9482  2.17598367  7007"}}, "geometry": {"type": "Point", "coordinates": [-172.41893748374602, -14.288130002548572]}}, {"type": "Feature", "properties": {"norad_id": 62876, "name": "QZS-6 (QZSS/PRN 200)", "group": "gnss", "lat": -0.038720582211981075, "lon": -19.90857954055997, "alt_km": 35782.87484816042, "timestamp": "2025-12-17T10:52:54.597065+00:00", "meta": {"OBJECT_NAME": "QZS-6 (QZSS/PRN 200)", "OBJECT_ID": "2025-023A", "EPOCH": "2025-12-16T18:55:29.078400", "MEAN_MOTION": 1.00273633, "ECCENTRICITY": 0.00015208, "INCLINATION": 0.0416, "RA_OF_ASC_NODE": 64.978, "ARG_OF_PERICENTER": 210.5373, "MEAN_ANOMALY": 184.5563, "EPHEMERIS_TYPE": 0, "CLASSIFICATION_TYPE": "U", "NORAD_CAT_ID": 62876, "ELEMENT_SET_NO": 999, "REV_AT_EPOCH": 313, "BSTAR": 0, "MEAN_MOTION_DOT": -2.1e-06, "MEAN_MOTION_DDOT": 0}, "tle": {"line1": "1 62876U 25023A   25350.78853100 -.00000210  00000+0  00000+0 0  9990", "line2": "2 62876   0.0416  64.9780 0001520 210.5373 184.5563  1.00273633  3139"}}, "geometry": {"type": "Point", "coordinates": [-19.90857954055997, -0.038720582211981075]}}, {"type": "Feature", "properties": {"norad_id": 63130, "name": "COSMOS 2584 (704K)", "group": "gnss", "lat": -54.90896444561053, "lon": 37.414286302025786, "alt_km": 19131.681435569517, "timestamp": "2025-12-17T10:52:54.597079+00:00", "meta": {"OBJECT_NAME": "COSMOS 2584 (704K)", "OBJECT_ID": "2025-042A", "EPOCH": "2025-12-14T17:19:43.603680", "MEAN_MOTION": 2.13103043, "ECCENTRICITY": 0.00076907, "INCLINATION": 64.977, "RA_OF_ASC_NODE": 79.0784, "ARG_OF_PERICENTER": 217.9412, "MEAN_ANOMALY": 142.0178, "EPHEMERIS_TYPE": 0, "CLASSIFICATION_TYPE": "U", "NORAD_CAT_ID": 63130, "ELEMENT_SET_NO": 999, "REV_AT_EPOCH": 611, "BSTAR": 0, "MEAN_MOTION_DOT": -5.6e-07, "MEAN_MOTION_DDOT": 0}, "tle": {"line1": "1 63130U 25042A   25348.72203245 -.00000056  00000+0  00000+0 0  9993", "line2": "2 63130  64.9770  79.0784 0007690 217.9412 142.0178  2.13103043  6119"}}, "geometry": {"type": "Point", "coordinates": [37.414286302025786, -54.90896444561053]}}]}